{"type":"FeatureCollection","crs":{"type":"name","properties":{"name":"EPSG:4326"}},"features":[{"type":"Feature","geometry":{"type":"LineString","coordinates":[[-122.340432492884,47.6052344500119],[-122.340423852245,47.6051803741636],[-122.340371456402,47.605142852304],[-122.340231568441,47.6051425115165],[-122.340103998093,47.6051474918135],[-122.340019434663,47.6051815158687],[-122.339909598824,47.605056837266],[-122.339803593982,47.6049384149128],[-122.340003502819,47.6049393323287],[-122.340205391374,47.6049385777889],[-122.340438080088,47.6049374156082],[-122.340435479349,47.604763606434],[-122.340433211389,47.6046292778786],[-122.340136456275,47.6046301921093],[-122.339782390737,47.6046261055602],[-122.339640454107,47.6046109848343],[-122.339493568434,47.6045929124421],[-122.339497303682,47.604581894934],[-122.339472917041,47.6045377972956],[-122.339424975496,47.6045343191731],[-122.339403218083,47.60451102568],[-122.339339008699,47.604505843014],[-122.339225028193,47.6043779285843],[-122.339347463067,47.6043776789153],[-122.339504020395,47.6043797199398],[-122.339718955123,47.6043815353649],[-122.339869027957,47.604383661041],[-122.340026745754,47.6043837668329],[-122.34029961948,47.6043842656422],[-122.340464663805,47.6043853695386],[-122.340494100328,47.6043378172769],[-122.340434517237,47.6042823953201],[-122.340317744726,47.6041701486924],[-122.340211359031,47.6040665381312],[-122.340124664281,47.6039848772841],[-122.340101422745,47.6039103285013],[-122.339840535523,47.6039036379237],[-122.339573943517,47.6038959251173],[-122.339551105214,47.6038773076538],[-122.339303012498,47.6038783982182],[-122.339011014463,47.6038754076064],[-122.339010493848,47.6038013799203],[-122.3390110001,47.6037067741474],[-122.339035356836,47.6037078227254],[-122.339040478424,47.6036466082765],[-122.339009963652,47.6036428986548],[-122.339004765281,47.6035332868568],[-122.33860270911,47.6035328583203],[-122.338437574028,47.6035294070241],[-122.338217595943,47.6032889030903],[-122.338093437796,47.6031645130143],[-122.338259330935,47.6030988035343],[-122.338217796594,47.6030488244039],[-122.339214187583,47.6030552045335],[-122.339215182175,47.6029587919484],[-122.339408233074,47.6029611720011],[-122.339409164639,47.6029233200356],[-122.339542601973,47.6029251180748],[-122.339854873811,47.6029283870222],[-122.33987226882,47.6029270602261],[-122.339860861159,47.6028550958384],[-122.339499185796,47.602853852579],[-122.3393194292,47.6028485541681],[-122.339321372898,47.6027616066483],[-122.339322212931,47.6026505440045],[-122.339421543085,47.6026506000388],[-122.339418631857,47.6025639912487],[-122.339672042177,47.6025647490908],[-122.339848357299,47.6025632364994],[-122.339842345059,47.6024955885926],[-122.339657790474,47.6024925485798],[-122.339414813004,47.6024880873677],[-122.339412512648,47.6024085995547],[-122.339409517656,47.6022490537426],[-122.339413387733,47.60208859506],[-122.33941517266,47.6019821808899],[-122.339263930507,47.6019814411049],[-122.339261640747,47.6018602745215],[-122.339260732299,47.6017588314607],[-122.33925777617,47.6015838703594],[-122.337954307313,47.6015564819094],[-122.337917420167,47.601570679644],[-122.337888225632,47.601570517511],[-122.337598401486,47.6015721563841],[-122.337322690242,47.6015711398744],[-122.337038985213,47.6015740673478],[-122.336758878311,47.6015753018832],[-122.336661536776,47.6015738456532],[-122.336604603876,47.6015254114073],[-122.336958508471,47.6013548187717],[-122.336941880253,47.6012886428538],[-122.336827174214,47.6012703952537],[-122.336796149809,47.6011617350657],[-122.336772941561,47.6010499035081],[-122.336864141688,47.6009792420436],[-122.336853663713,47.6009375388849],[-122.336672013403,47.600924986168],[-122.336325065672,47.6009512805356],[-122.336296089538,47.6008520407839],[-122.33627032628,47.6008022025617],[-122.336443019533,47.6008018401732],[-122.336689056713,47.6008002345869],[-122.336849980859,47.6007994788746],[-122.336859918979,47.600750539869],[-122.336859809645,47.6006485380608],[-122.336859793833,47.6005777944968],[-122.336862464691,47.6004878211557],[-122.336856756423,47.6004305882505],[-122.336900444849,47.6004272690188],[-122.337080415274,47.6004262612411],[-122.337295270246,47.6004258891726],[-122.337394564457,47.600424850239],[-122.337394736471,47.600458849288],[-122.337419885021,47.6004593394957],[-122.337496502718,47.6004451648463],[-122.337628266157,47.6004313574339],[-122.337769738151,47.600430857615],[-122.337956192603,47.600429763409],[-122.338247242106,47.6004286555584],[-122.338524910001,47.6004274495465],[-122.338835005888,47.6004260888964],[-122.339167391167,47.6004244316723],[-122.339428030837,47.6004231750823],[-122.339566650567,47.600422162561],[-122.339625880355,47.6004095876005],[-122.339661187473,47.600368812402],[-122.339659849895,47.6002385842898],[-122.339658380594,47.6000617438337],[-122.339656361811,47.5999079432318],[-122.339654143681,47.5997612750359],[-122.339614543084,47.5997236852675],[-122.33948473775,47.599721016644],[-122.339059118611,47.5997228117347],[-122.3388260555,47.599724251525],[-122.338590933501,47.5997246202209],[-122.338286921133,47.5997259004859],[-122.338091132096,47.5997265712109],[-122.337903463283,47.5997276824338],[-122.337728341853,47.599728078494],[-122.337538990226,47.5997270177575],[-122.337439507234,47.5997214784973],[-122.337309155465,47.5996998941079],[-122.337175244025,47.5996673892727],[-122.337054493424,47.5996273067992],[-122.336944185854,47.5995698117528],[-122.336859779609,47.5995248614881],[-122.336853594846,47.599479151864],[-122.336852989482,47.5994160933773],[-122.336852366493,47.5993664712531],[-122.336910324731,47.5993659790128],[-122.337002345564,47.5993658599185],[-122.337130846908,47.5993655322949],[-122.337192078772,47.5993660937946],[-122.337224822912,47.5993769034585],[-122.337261254886,47.5993750509217],[-122.33729326866,47.5993746277015],[-122.337329582842,47.5993686632404],[-122.337361654349,47.5993421903685],[-122.337361881741,47.5992939279173],[-122.33736339918,47.5992061634101],[-122.337361626538,47.5991307813749],[-122.3373618608,47.5990827925953],[-122.337420510147,47.5990781788981],[-122.337684066563,47.5990799039547],[-122.337996665362,47.5990812535229],[-122.338282041635,47.5990804949842],[-122.338484851438,47.5990843926977],[-122.338680669776,47.5990848180323],[-122.338949439779,47.5990845513214],[-122.339247370192,47.5990833504474],[-122.339439883136,47.5990816239157],[-122.339671751326,47.5990810220461],[-122.339875229683,47.5990799729775],[-122.33995874111,47.599079963472],[-122.340020949448,47.5990722849922],[-122.340064279431,47.5990566295897],[-122.340099782643,47.5990227069431],[-122.340120840426,47.5989799267004],[-122.34017247892,47.5988311742269],[-122.340230870578,47.5986776705824],[-122.34031151117,47.5984665637792],[-122.340397476463,47.5982433218497],[-122.340469510926,47.5980430225259],[-122.340563739044,47.5977832022532],[-122.340655939419,47.5975373924256],[-122.340744030611,47.5973037021844],[-122.340832669542,47.5970749407611],[-122.340920267249,47.5968382405943],[-122.340992892882,47.5966445138869],[-122.341081466075,47.5964135594956],[-122.341150674477,47.5962278297236],[-122.341230505957,47.5960030236782],[-122.34129008327,47.5958486809896],[-122.341333649457,47.5957433575408],[-122.341423188692,47.5954899049677],[-122.341501595538,47.5952859565638],[-122.341771517523,47.5945708240296],[-122.341905220582,47.594218895432],[-122.342004138411,47.5939255584281],[-122.342085170057,47.5937144456726],[-122.342169904158,47.5934912178087],[-122.342248169982,47.5932826089821],[-122.342331765413,47.5930621386264],[-122.342422702338,47.5928292318086],[-122.342518413326,47.5925652765006],[-122.342625379859,47.5922841717666],[-122.342734546089,47.5919950852596],[-122.34280568924,47.5917926031163],[-122.342906520526,47.5915236440197],[-122.343007882351,47.5912730493872],[-122.343004836952,47.59114010201],[-122.343001567633,47.5909295584003],[-122.342999706568,47.5907535457048],[-122.342870748421,47.5906675126417],[-122.342470316526,47.5906687127405],[-122.341980587911,47.5906656121691],[-122.341577351957,47.5906679434742],[-122.341137905258,47.5906655441506],[-122.340641415389,47.5906669146698],[-122.339980703008,47.5906660711942],[-122.339555024115,47.5906632082223],[-122.339143661329,47.5906648165258],[-122.338602062665,47.5906621136216],[-122.338271749596,47.5906631943744],[-122.338267132546,47.5905735911341],[-122.338267362662,47.5904693918718],[-122.338270526505,47.5903404751321],[-122.338265196695,47.5902122197007],[-122.338266257359,47.5900526202197],[-122.338548176339,47.5900461479577],[-122.339006829045,47.5900400774561],[-122.339373776588,47.5900445420645],[-122.339773837853,47.5900447286318],[-122.34034948077,47.5900475223404],[-122.340859326742,47.5900457015337],[-122.341234243427,47.5900453935313],[-122.341617303724,47.5900463472261],[-122.34184010645,47.5900420216156],[-122.34215632184,47.5900441337653],[-122.342463193868,47.5900455463106],[-122.34277760531,47.5900413742901],[-122.34292223474,47.5900389066383],[-122.342929025836,47.5899236520918],[-122.342929968541,47.5897884581683],[-122.342925200477,47.5896939215576],[-122.342773922027,47.5896487668743],[-122.342603536793,47.5896016712114],[-122.342367380544,47.5895368025433],[-122.342362931862,47.5895231516509],[-122.342360731259,47.5894751950953],[-122.342428496592,47.5894359081216],[-122.342521541195,47.5894017693733],[-122.342608142783,47.5893690869635],[-122.342674001306,47.5893339379052],[-122.342750521109,47.5892890501748],[-122.342813440164,47.5892643598863],[-122.342884819738,47.5892379111875],[-122.342879957122,47.5891680545213],[-122.342925675885,47.589109317305],[-122.342943564963,47.5890273672042],[-122.342957561623,47.5889509531497],[-122.342965107637,47.5888617374872],[-122.342947541435,47.5887731295936],[-122.342911227128,47.5887088995871],[-122.342889760232,47.5886675058204],[-122.342849831732,47.5886323896836],[-122.342767759091,47.5885835739893],[-122.342688069687,47.5885610506877],[-122.342607617422,47.5885122133784],[-122.34257469622,47.5884391637892],[-122.342572780532,47.5882892007334],[-122.342591567372,47.5882102557874],[-122.342586092286,47.58806335627],[-122.342577431113,47.5878345126016],[-122.342568229636,47.5876429675483],[-122.342704757874,47.5876408820478],[-122.34298020466,47.5876353065026],[-122.342988065152,47.5873752591773],[-122.342868981648,47.5873219993699],[-122.342785131617,47.5872956916784],[-122.342783129206,47.5871986509825],[-122.342781704888,47.5870516977067],[-122.342779105583,47.5869201153268],[-122.342783885215,47.5867774669437],[-122.342783581304,47.5866132243455],[-122.342779901983,47.5864583492309],[-122.342778716104,47.5863196183177],[-122.342774735662,47.5862382336403],[-122.342694859456,47.5862510844659],[-122.342615364898,47.586263107477],[-122.342602908464,47.5862528529315],[-122.342575127722,47.5862033166759]]},"properties":{"TYPE":"PUG"}},{"type":"Feature","geometry":{"type":"LineString","coordinates":[[-122.371128548669,47.6250931539269],[-122.371126829392,47.6250920371708],[-122.371088637515,47.6250761013046],[-122.371071267967,47.6250648188973],[-122.371039660369,47.6250520841511],[-122.371022762544,47.6250429896944],[-122.371006666196,47.6250336099407],[-122.370967882515,47.6250250849132],[-122.370953489491,47.6250184247036],[-122.370910188862,47.6249943308095],[-122.37089046047,47.6249855490387],[-122.370817774965,47.6249552718777],[-122.370796911143,47.6249492465871],[-122.370774676982,47.6249380305491],[-122.370751769936,47.6249314853202],[-122.37073363954,47.6249218585373],[-122.370711916537,47.6249142001418],[-122.370679806075,47.6248981812963],[-122.370646349826,47.6248915040675],[-122.370627950309,47.6248865426271],[-122.370589150605,47.6248774694577],[-122.370573516925,47.6248700032593],[-122.370540863215,47.6248630406938],[-122.370519570393,47.6248561991508],[-122.370499995991,47.6248526244878],[-122.37046652358,47.6248453984914],[-122.370435670192,47.6248307342337],[-122.370409138189,47.624825059888],[-122.370385760621,47.6248163273125],[-122.370346498502,47.6248053411446],[-122.370331294983,47.6247986911012],[-122.370317810927,47.6247953086301],[-122.370283008776,47.6247842622138],[-122.370275159558,47.6247794320154],[-122.370194826909,47.6247511768896],[-122.37015801395,47.6247407058189],[-122.370146937467,47.6247364681214],[-122.370078176323,47.6247154602551],[-122.370056754068,47.6247042331181],[-122.370022835527,47.6246956427888],[-122.369968791114,47.6246785489518],[-122.36992298552,47.624665731119],[-122.369904092324,47.624657760604],[-122.369870603933,47.6246499864193],[-122.369779779211,47.6246235180448],[-122.369713776095,47.6245997301696],[-122.369672827259,47.6245865729136],[-122.369633752725,47.6245681803896],[-122.369577778671,47.6245544032096],[-122.369553899434,47.6245423864448],[-122.369501980558,47.6245285544946],[-122.369489639169,47.62452268841],[-122.36943216652,47.6244993341754],[-122.369414781341,47.6244875035021],[-122.369393958356,47.6244828490396],[-122.369348890859,47.6244675536261],[-122.369329455423,47.624454927911],[-122.369270912175,47.6244365242341],[-122.369260589776,47.6244303564129],[-122.369242589336,47.6244251156024],[-122.369187288568,47.6244066674258],[-122.369129702887,47.6243794755431],[-122.369105783376,47.6243660883006],[-122.369053459174,47.6243385516209],[-122.369041767682,47.6243271922997],[-122.368997844043,47.624309413924],[-122.36895326375,47.6242831429433],[-122.368940834535,47.6242742623619],[-122.368904913917,47.6242528107161],[-122.368902359682,47.6242487316861],[-122.368880183895,47.6242394336609],[-122.368855452868,47.6242260573159],[-122.36884112504,47.6242215888918],[-122.368805836865,47.6242078067311],[-122.368795856723,47.6241994413261],[-122.368751430342,47.6241783781458],[-122.368715268224,47.624148704123],[-122.368708919116,47.6241397407949],[-122.368683970792,47.6241189637645],[-122.368675108987,47.624107292471],[-122.368646422429,47.6240835495343],[-122.368637551524,47.6240716045961],[-122.36862960654,47.6240634854891],[-122.368592016449,47.6240404108719],[-122.368555813016,47.6240093657267],[-122.368510757017,47.6239669236072],[-122.368502267715,47.623954150814],[-122.368474417228,47.623931219257],[-122.368454348877,47.6239109245895],[-122.368369108582,47.6238399583136],[-122.36834616329,47.6238183314999],[-122.368314963331,47.6237918805225],[-122.368308599203,47.6237823691447],[-122.368283950854,47.6237580234286],[-122.368277488637,47.62374522258],[-122.368271975576,47.6237370713539],[-122.368250448959,47.6237222800362],[-122.36823666505,47.6237087559293],[-122.368182162336,47.6236760382901],[-122.368138248038,47.6236448225356],[-122.368123815326,47.6236367915839],[-122.368081621414,47.6236088434011],[-122.368070529153,47.6236040567864],[-122.368041031513,47.6235803246412],[-122.368018369491,47.6235682911517],[-122.367992554526,47.623545606502],[-122.367971910407,47.6235332713282],[-122.367962351474,47.6235254484054],[-122.367924000491,47.6234903192375],[-122.367912446899,47.6234836196676],[-122.367871129015,47.6234441432313],[-122.367837975273,47.6234201858633],[-122.367829129942,47.6234090625171],[-122.367791799953,47.6233810493561],[-122.367783400877,47.6233712909194],[-122.367716169836,47.6233195502552],[-122.367709050829,47.6233119681832],[-122.367681751326,47.6232939644987],[-122.367669686921,47.6232837079372],[-122.367615403841,47.6232446799599],[-122.367595888448,47.6232293131799],[-122.367561591326,47.6232078392415],[-122.36755654788,47.6232018752795],[-122.367531673205,47.6231835644071],[-122.367517264968,47.6231763557493],[-122.36750625368,47.6231743098482],[-122.367485723016,47.6231658127849],[-122.367478224578,47.6231590585115],[-122.36744919794,47.6231375134979],[-122.367444130242,47.6231307264582],[-122.367421955823,47.6231077181475],[-122.367399797585,47.6230852578459],[-122.367361787811,47.6230616402642],[-122.367352147198,47.6230510765353],[-122.367317080115,47.6230309838329],[-122.367309174868,47.6230242350318],[-122.367300434806,47.6230166754859],[-122.36725554063,47.622993425123],[-122.367217774114,47.6229643197985],[-122.367186559062,47.6229373197962],[-122.367175168029,47.6229223923896],[-122.367119102908,47.6228779044855],[-122.367087262216,47.6228572200041],[-122.367078417142,47.6228460965995],[-122.367036143628,47.6228154072596],[-122.36702570061,47.6228051280819],[-122.366977215897,47.6227701351661],[-122.366935419987,47.6227419067459],[-122.366925407058,47.6227324444619],[-122.366890275735,47.6227101595739],[-122.366875722242,47.6226980159067],[-122.366842585608,47.6226746069635],[-122.366832150745,47.6226646021256],[-122.366803976665,47.6226444163961],[-122.366790615381,47.6226314346595],[-122.36674903783,47.6226106068089],[-122.36671721464,47.6225904702234],[-122.366708036601,47.6225818193706],[-122.366688958823,47.6225675437102],[-122.36668095679,47.6225575060827],[-122.366630486801,47.6225102007105],[-122.366619948028,47.6224966326987],[-122.366593532603,47.6224810842444],[-122.36655782612,47.6224530481226],[-122.366543224322,47.6224392603722],[-122.366535505077,47.622438816129],[-122.366526100049,47.6224362009682],[-122.366496247479,47.622414118617],[-122.36645114607,47.6223700309382],[-122.366418731558,47.6223435958255],[-122.366389487721,47.6223146499022],[-122.366352232991,47.6222891019646],[-122.366333561225,47.6222748207784],[-122.366290669808,47.6222507203752],[-122.366277948785,47.6222456817651],[-122.366257671014,47.6222319704293],[-122.366248031817,47.6222214065928],[-122.366223807126,47.6221976029774],[-122.366217346647,47.6221848019974],[-122.366190461104,47.6221670668607],[-122.366184542711,47.622158920297],[-122.366163908692,47.6221468591385],[-122.366143323145,47.6221364427187],[-122.366116364961,47.6221162404507],[-122.366087234485,47.6220911319483],[-122.366079711116,47.6220835552254],[-122.366058923712,47.6220662861642],[-122.366049307777,47.622056544696],[-122.365994339787,47.6220079279996],[-122.365956972436,47.6219785431353],[-122.365918477576,47.6219521897659],[-122.365873373942,47.6219218118872],[-122.365843076808,47.6218983644299],[-122.365836769897,47.6218907720137],[-122.365810525628,47.6218672692734],[-122.365761167444,47.6218300939968],[-122.365731720312,47.6218080059948],[-122.365727601837,47.6218058678212],[-122.365691467295,47.6217770145056],[-122.365655080389,47.6217533745263],[-122.365636376702,47.6217379964966],[-122.365593243852,47.6217056728183],[-122.365586904699,47.6216969836592],[-122.365555585206,47.6216801307706],[-122.365541048473,47.6216685356478],[-122.365513280199,47.6216483441491],[-122.365491333288,47.6216330097583],[-122.365464496717,47.6216169191926],[-122.365459430464,47.6216101320504],[-122.365439623536,47.6215986078623],[-122.365413031347,47.6215770295796],[-122.365406691202,47.6215683404244],[-122.365388557113,47.6215447291176],[-122.365379435976,47.6215379965563],[-122.365364453164,47.6215250364884],[-122.365341695805,47.6215097136814],[-122.365336621519,47.6215026528778],[-122.365322887369,47.6214907724584],[-122.365312850757,47.6214804876607],[-122.365260987917,47.6214408777989],[-122.365249288828,47.621429245147],[-122.365235855596,47.6214137961132],[-122.365215968087,47.6213995311156],[-122.36520552675,47.6213892517567],[-122.365183700078,47.6213780291776],[-122.365117803553,47.621330108104],[-122.365100015653,47.6213182822185],[-122.365082585153,47.6213048068274],[-122.36502961929,47.6212690507304],[-122.364960235351,47.6212266602168],[-122.364922949834,47.6212000157831],[-122.364902616349,47.6211843858064],[-122.364892182157,47.6211743807904],[-122.364826587042,47.6211228902432],[-122.364732079654,47.6210536921662],[-122.36466153068,47.6209992518629],[-122.364564242738,47.6209320102241],[-122.364467237397,47.620874361902],[-122.364366560057,47.6208159402007],[-122.364282201555,47.6207745734316],[-122.364177029185,47.6207288248528],[-122.364066725005,47.6206878069186],[-122.363930394411,47.6206443970507],[-122.363813636387,47.620604562836],[-122.363710165947,47.6205752434865],[-122.363602168867,47.6205575012646],[-122.363516485906,47.6205400078589],[-122.363437415722,47.6205405220112],[-122.363365353426,47.6205310716374],[-122.363272383319,47.6205002391002],[-122.363196440059,47.6204691783104],[-122.363146292393,47.6204188508064],[-122.363052737104,47.6203542995965],[-122.36295485143,47.6202941937636],[-122.362881724776,47.6202485622397],[-122.362801317382,47.620203576747],[-122.362762366122,47.6201615986445],[-122.362747958962,47.6201129842886],[-122.362694415768,47.6200574922808],[-122.362637144144,47.6199993077934],[-122.362554264158,47.6199115800364],[-122.362498873668,47.6198484347278],[-122.362439153753,47.6197897355142],[-122.362381613879,47.6197362162246],[-122.362360460033,47.6196926279488],[-122.362339252829,47.6196334105507],[-122.362300265113,47.619576351887],[-122.362251751318,47.6195125658491],[-122.362178146132,47.6194367778168],[-122.362111244964,47.619368303253],[-122.362024285923,47.6192935172068],[-122.361946748488,47.6192218946344],[-122.361844890244,47.6191368886892],[-122.361797160653,47.6190859799166],[-122.361716907255,47.6190185064538],[-122.361630910721,47.6189626271135],[-122.361555800522,47.6189183923412],[-122.36145282644,47.6188643862437],[-122.361339958909,47.6188187391548],[-122.361214824919,47.6187696913869],[-122.361122381036,47.6187289791318],[-122.361067675404,47.6187028418071],[-122.360986017791,47.6186841953485],[-122.360889128812,47.6186854958882],[-122.360777338123,47.6186902871368],[-122.360671775109,47.6186862195008],[-122.360589806019,47.6186845776963],[-122.360460420373,47.6186564259409],[-122.360416524034,47.6186254815479],[-122.360434299806,47.6186093387291],[-122.360464406517,47.618598790018],[-122.360494915815,47.6185605400872],[-122.360504517816,47.6185146196145],[-122.360497029362,47.6184667348587],[-122.360474845304,47.618401772082],[-122.360475289566,47.6183340375648],[-122.360488558964,47.6182749061406],[-122.360476182293,47.6182262642829],[-122.360484150633,47.6181938012369],[-122.36046845744,47.6181427357941],[-122.36043029949,47.618086213626],[-122.360384788636,47.6180278709528],[-122.36032022412,47.6179697832195],[-122.360249097669,47.6179230267777],[-122.360161198382,47.6178712846804],[-122.360128140858,47.6178499372628],[-122.360081824267,47.617819839495],[-122.36002898691,47.6177674900322],[-122.359940600244,47.6177060209409],[-122.359855280264,47.6176523248593],[-122.359759691498,47.6176010969557],[-122.359669272557,47.6175602195198],[-122.359583883697,47.6175248958438],[-122.359490575486,47.617482274744],[-122.359410440603,47.6174463315499],[-122.359339156157,47.6174079398205],[-122.359267496598,47.6173636573221],[-122.359211551706,47.6173228655072],[-122.359154835011,47.6172764627247],[-122.359084811456,47.6172395617442],[-122.35903183635,47.6172101094888],[-122.358957013625,47.6171686110617],[-122.358900645531,47.6171409872097],[-122.358822751326,47.6171122802577],[-122.358729669556,47.6170911803916],[-122.358628169979,47.6170664918451],[-122.358535708555,47.617045794856],[-122.358448259402,47.6170369583096],[-122.358383657571,47.6170258963663],[-122.358305844159,47.616999929836],[-122.358241574899,47.6169725484243],[-122.358163941036,47.6169319098531],[-122.358064476005,47.6168797729253],[-122.357974655729,47.6168384748082],[-122.357931476361,47.6168180766515],[-122.357842238945,47.6167689564166],[-122.357807139614,47.6167474903936],[-122.357802010583,47.6167385101487],[-122.357770655587,47.616706437195],[-122.357659255947,47.6166137405606],[-122.357493779646,47.6164815977975],[-122.357358213616,47.6163737323135],[-122.357170512009,47.6162442172462],[-122.357108269025,47.616195968327],[-122.357038398938,47.6161434342549],[-122.356944008948,47.6160706631425],[-122.356863035253,47.616005938596],[-122.356795590134,47.6159530981521],[-122.356709597655,47.6158900860804],[-122.356643639645,47.6158395561463],[-122.356519948408,47.6157493534844],[-122.356424867978,47.615687559307],[-122.356307063734,47.6156113996365],[-122.356211545228,47.6155553700195],[-122.35610795296,47.6154936894941],[-122.356040949428,47.6154559235929],[-122.355970822229,47.6154153200142],[-122.355930428712,47.6153861093655],[-122.355889097575,47.6153595162166],[-122.35583251764,47.6153314823785],[-122.355770054894,47.6152963974221],[-122.355710769948,47.6152590762997],[-122.355687231991,47.6152445924948],[-122.355627549191,47.6152075426952],[-122.355571742841,47.6151712721302],[-122.355509386582,47.6151328948294],[-122.3554538969,47.6150936036569],[-122.355377629435,47.6150510258187],[-122.355317890323,47.6150189205098],[-122.355276251279,47.614995621344],[-122.355247775267,47.6149787276859],[-122.355233792765,47.614972059359],[-122.35522520012,47.614969432425],[-122.355221098648,47.6149678418861],[-122.355235286453,47.6149676521418],[-122.355257994758,47.6149676229084],[-122.355298189882,47.6149692789511],[-122.355343200722,47.6149692251798],[-122.355397153845,47.6149698744813],[-122.355442212802,47.6149714654182],[-122.355537489068,47.6149707392265],[-122.355616566901,47.6149707785772],[-122.355659162382,47.6149713052212],[-122.355679238014,47.6149713834243],[-122.355738851289,47.6149714731942],[-122.355809722139,47.6149681945414],[-122.355819276541,47.6149690262913],[-122.355895929947,47.6149693716479],[-122.355969380583,47.6149711314342],[-122.356072421988,47.6149724945155],[-122.356192064605,47.6149729495299],[-122.356327932727,47.6149735993166],[-122.356466809285,47.6149731115127],[-122.356542782387,47.6149709981544],[-122.356594538579,47.6149727727546],[-122.356691298663,47.614974220058],[-122.356778519323,47.6149753829378],[-122.356858232321,47.6149763725004],[-122.356936710069,47.6149766927318],[-122.35704832523,47.6149799968771],[-122.357105664466,47.6149785432903],[-122.357159852099,47.6149802857781],[-122.357222751576,47.6149817739938],[-122.357274009729,47.6149804017555],[-122.357317585952,47.6149798181856],[-122.357342820672,47.6149760532727],[-122.357351800749,47.6149711344168],[-122.357354660643,47.6149649265989],[-122.357358011485,47.6149408887668],[-122.357358322825,47.6149168916412],[-122.357358102039,47.6149093541553],[-122.357346625612,47.6148982652787],[-122.35731364274,47.6148797870951],[-122.357255219826,47.6148442381995],[-122.357197100717,47.6148121121699],[-122.357192979119,47.6148098361571],[-122.357125335474,47.6147709830069],[-122.357027945128,47.6147133330541],[-122.356940280903,47.6146624081294],[-122.356845430704,47.6146084261469],[-122.356764414133,47.6145628964961],[-122.356728810667,47.6145380092495],[-122.356710694541,47.6145286552908],[-122.356698972043,47.6145230533481],[-122.356685758092,47.6145218593144],[-122.356672532103,47.6145202540924],[-122.356585311171,47.6145190911453],[-122.356481324998,47.6145200716889],[-122.356391966111,47.6145150981975],[-122.356210121993,47.6145161609484],[-122.355974266076,47.6145145184586],[-122.355788340558,47.6145146755689],[-122.355689075943,47.6145176482564],[-122.355665963987,47.6145177124607],[-122.355560740695,47.6145179941189],[-122.355418728618,47.6145152326928],[-122.355288949721,47.614514774863],[-122.355234631407,47.6145155013257],[-122.355124659341,47.614512858555],[-122.355033851007,47.6145137991321],[-122.354935674302,47.6145123693737],[-122.354852574873,47.6145134804915],[-122.3547743333,47.614514252836],[-122.354674104874,47.61451202829],[-122.354572629223,47.6145087231678],[-122.354519932859,47.6145094276069],[-122.35448545346,47.6145090658152],[-122.354463547812,47.6145088104041],[-122.354448810148,47.6145040719343],[-122.354428253991,47.6144944750662],[-122.35435821349,47.6144567488016],[-122.35428463377,47.6144089243947],[-122.354216530974,47.6143681558319],[-122.354152101964,47.6143281608269],[-122.354083618685,47.6142882192655],[-122.354057721083,47.6142762263313],[-122.354057632957,47.614273211194],[-122.354077495832,47.6142729457517],[-122.35409773138,47.6142715788666],[-122.35411396969,47.6142721845517],[-122.354193054459,47.6142724985483],[-122.354320782048,47.614272162342],[-122.354490634699,47.6142701664361],[-122.354629306006,47.6142696835932],[-122.354696189741,47.6142687894263],[-122.354740365475,47.6142679243548],[-122.354739884597,47.6142514789834],[-122.354733939793,47.6141868463166],[-122.354735350272,47.6141380195851],[-122.354736992212,47.6141248359117],[-122.35475563883,47.6141245866112],[-122.354863098531,47.6141245207677],[-122.354970605296,47.6141260995842],[-122.355047194361,47.6141242527358],[-122.355182177639,47.6141224476067],[-122.355381708275,47.6141230697752],[-122.355545997413,47.6141249850105],[-122.355654545472,47.6141274161709],[-122.355683759772,47.6141280775823],[-122.355736484838,47.6141283317924],[-122.355739265805,47.6141263754324],[-122.355739232299,47.614104439673],[-122.355738140567,47.6140186286029],[-122.35573577467,47.6139377707523],[-122.355732917954,47.6139094287827],[-122.355717531033,47.6138963360287],[-122.355646804452,47.6138627346149]]},"properties":{"TYPE":"PUG"}},{"type":"Feature","geometry":{"type":"LineString","coordinates":[[-122.355646804452,47.6138627346149],[-122.355625210241,47.6138524646327],[-122.355521256428,47.6137921600892],[-122.355499556343,47.613785046804],[-122.355384317585,47.6137270860099],[-122.355263331752,47.613666734582],[-122.355141471621,47.613604201101],[-122.355104794733,47.6135841263087],[-122.355052549023,47.6135724859533],[-122.355023115215,47.6135643788377],[-122.354981324349,47.613563566746],[-122.354852650755,47.6135592546594],[-122.354787293688,47.6135568384391],[-122.354545219006,47.6135573329311],[-122.354314970437,47.6135601362236],[-122.354035238245,47.6135625038829],[-122.353848665002,47.6135611580174],[-122.353637738144,47.6135590407577],[-122.353417170938,47.6135600674981],[-122.353196254042,47.6135630183371],[-122.353051171042,47.6135660531721],[-122.352999285018,47.6135667460975],[-122.352925455801,47.6135658128745],[-122.352855694787,47.6135653728074],[-122.352837928353,47.6135540937209],[-122.352728621924,47.6134908418375],[-122.352612279299,47.6134227476248],[-122.352459229287,47.6133334816168],[-122.352329549135,47.6132529516935],[-122.352239847051,47.6132083575366],[-122.352174657534,47.6131700169914],[-122.35210183139,47.6131339712512],[-122.351992797701,47.613080037748],[-122.351968839788,47.6130650021524],[-122.351967121868,47.6130617343],[-122.352002678196,47.613043437061],[-122.352013923406,47.6130397224402],[-122.352027244246,47.6130376248043],[-122.352082833251,47.6130388027482],[-122.352217941837,47.6130413866637],[-122.352390373882,47.6130445686411],[-122.352567591648,47.6130449446158],[-122.352649551621,47.6130465928995],[-122.352661511167,47.613039577897],[-122.352675178204,47.6130215719997],[-122.352684181688,47.6130104836909],[-122.352638784884,47.6129833954626],[-122.352509939792,47.6129036779996],[-122.352372438909,47.6128191397752],[-122.35233319527,47.6127944366717],[-122.352323767653,47.6127909979764],[-122.352331875082,47.6127908897518],[-122.35238580991,47.6127909924651],[-122.35253666994,47.612791446568],[-122.352690781764,47.6127921308167],[-122.352831825457,47.6127896992819],[-122.352855320265,47.6127888373179],[-122.353063667539,47.6127860549687],[-122.353154035125,47.6127840246497],[-122.353172131427,47.6127788474842],[-122.353175505122,47.612755495306],[-122.35317869543,47.6126981448274],[-122.353176749888,47.6126315395358],[-122.35317512281,47.6126035924448],[-122.353161185629,47.6125845842484],[-122.353122554659,47.6125670030207],[-122.353004745873,47.612504138744],[-122.352817432479,47.6124079272685],[-122.352603156965,47.6122909619822],[-122.352531238223,47.6122581951931],[-122.352478424079,47.612254787517],[-122.35225536606,47.6122536517134],[-122.351917271641,47.6122567932828],[-122.351541949232,47.6122626241697],[-122.351278778272,47.612262570565],[-122.351024064414,47.6122604837007],[-122.350691667862,47.6122643683265],[-122.350655187381,47.6122648547725],[-122.350546540378,47.6122657552192],[-122.350446340442,47.6122643493246],[-122.350419993888,47.612264700585],[-122.350365689122,47.6122380039998],[-122.350229043876,47.6121548234726],[-122.350043762729,47.612044596025],[-122.349904320403,47.6119628226246],[-122.34985151827,47.6119319930052],[-122.349842465774,47.6119274519494],[-122.349787540261,47.6118933605247],[-122.349749570622,47.6118705594312],[-122.34973173354,47.6118568127346],[-122.349737581576,47.6118487830264],[-122.34977105369,47.6118146100049],[-122.349842472222,47.611760736929],[-122.349936705902,47.6116827043978],[-122.34999296975,47.611637533912],[-122.349978828006,47.6116253833893],[-122.349965109004,47.6116137754594],[-122.349971052838,47.6116090345369],[-122.35000388099,47.6115806288862],[-122.350060272506,47.6115398438985],[-122.350106310973,47.611519486971],[-122.350125625048,47.6115282784563],[-122.350159068311,47.6115209780428],[-122.350179657825,47.6115039766311],[-122.350170501524,47.6114958731467],[-122.350144954956,47.6114819548183],[-122.350026125075,47.6114116983031],[-122.349915673284,47.6113506520026],[-122.349893442476,47.6113391575102],[-122.349773801795,47.6112689108444],[-122.349661824022,47.6111971917218],[-122.349586767145,47.6111540450758],[-122.349559130491,47.6111379615553],[-122.349539271421,47.6111522098709],[-122.349529393287,47.6111611159636],[-122.349522828094,47.6111584615961],[-122.349494341099,47.6111410177655],[-122.349418847823,47.6110967803686],[-122.349371475777,47.6110713625867],[-122.349286270703,47.6110278027262],[-122.349259412661,47.6110106116023],[-122.349260095298,47.6110062152734],[-122.349277816057,47.6109881564887],[-122.34929245487,47.610975621751],[-122.349276366811,47.6109662396235],[-122.349180216397,47.6109088411077],[-122.34904739948,47.61083163945],[-122.348911269537,47.6107520150912],[-122.348801940786,47.6106876627122],[-122.348780059316,47.6106742442049],[-122.348759793106,47.6106745141122],[-122.348631200035,47.6106726614013],[-122.348399421629,47.610664231417],[-122.348283775232,47.6106613846401],[-122.348159894029,47.6106542587369],[-122.348005614094,47.6106475380544],[-122.347983376201,47.6106497539226],[-122.34795619611,47.6106492930247],[-122.347936619599,47.6106454408372],[-122.347882993597,47.6106140723726],[-122.347757643612,47.6105425294165],[-122.347649000533,47.610473779596],[-122.347622826085,47.6104521917665],[-122.347610435689,47.6104444041845],[-122.347598641435,47.6104431902189],[-122.347509420981,47.6104427328314],[-122.347399870576,47.6104403515702],[-122.34733777634,47.6104384359413],[-122.347314592506,47.6104360018663],[-122.347250165708,47.6103957292933],[-122.347108951912,47.6103084917599],[-122.346978127295,47.6102298910224],[-122.34697772158,47.6102298964194],[-122.346821011463,47.6101395753079],[-122.346710916051,47.6100766020905],[-122.346578066106,47.6099980271436],[-122.34642682391,47.6099005037136],[-122.346271330782,47.6098101649853],[-122.346090715245,47.6097064501297],[-122.345904123957,47.6095923952867],[-122.345688532001,47.6094710469024],[-122.345505034178,47.609365724772],[-122.345338162469,47.6092604551872],[-122.345253194229,47.6092108566255],[-122.345176045751,47.6091652675694],[-122.345084408557,47.6091094511153],[-122.344919423068,47.6090132048022],[-122.344799843261,47.6089445976422],[-122.344766900193,47.6089272118573],[-122.344269896862,47.6086310689109],[-122.345725714527,47.6086158653854],[-122.34563832974,47.6085668481704],[-122.345553703287,47.6085150516855],[-122.345446457615,47.6084523138996],[-122.345363309949,47.608395562167],[-122.345362499584,47.6083955729357],[-122.345348845142,47.6083861572308],[-122.345333832807,47.6083858084945],[-122.345256783467,47.608385461415],[-122.345109615296,47.6083860459392],[-122.344928377546,47.6083862601961],[-122.344833137076,47.6083877998826],[-122.344712695318,47.6083872054593],[-122.344589012126,47.608386654663],[-122.344414290175,47.6083878787169],[-122.344231049864,47.6083889411511],[-122.344059458961,47.6083862833806],[-122.343994624964,47.6083876931109],[-122.343883394663,47.6083831372131],[-122.343846877059,47.6083822510838],[-122.343819705038,47.6083680791928],[-122.343778401571,47.608342029659],[-122.343681872296,47.6082851805989],[-122.343619977492,47.6082481618003],[-122.343551343266,47.6082024586659],[-122.343494011663,47.6081689444716],[-122.343472903212,47.6081541437944],[-122.343472029214,47.6081519617801],[-122.343466846792,47.6081410624912],[-122.343466234299,47.6081199571717],[-122.343466359566,47.6080684052254],[-122.343466510757,47.6080316600059],[-122.343472144556,47.608016229934],[-122.343507103812,47.6079913624231],[-122.343541014008,47.6079722662725],[-122.343562231693,47.6079349676752],[-122.343558701805,47.6078971748576],[-122.343556069752,47.6078344169714],[-122.343523540709,47.607789331756],[-122.343488357876,47.6077645718081],[-122.343478932792,47.607761132366],[-122.343494866669,47.6077513237354],[-122.343530239374,47.6077407088686],[-122.343549987394,47.6077226233769],[-122.343559276187,47.6076654661166],[-122.343559933303,47.6075903262825],[-122.343560107256,47.6075544034527],[-122.343563230385,47.6075502492356],[-122.343574968212,47.6075495452093],[-122.343684885181,47.6075508280456],[-122.34393587288,47.607551060645],[-122.344145042892,47.607549380586],[-122.344148674062,47.6075487834403],[-122.344177045707,47.6075484067103],[-122.344222726249,47.607543687367],[-122.344234742425,47.607538592347],[-122.344238456502,47.6075199464403],[-122.344239343003,47.6075154979512],[-122.344218010458,47.6074930222109],[-122.344205962297,47.6074830371677],[-122.344122190719,47.6074325990536],[-122.343986092613,47.6073535175231],[-122.343881617106,47.6072882729326],[-122.343837517784,47.607263631996],[-122.343822099318,47.6072632886319],[-122.343804386727,47.6072631887648],[-122.343749510889,47.6072628811578],[-122.343632735793,47.6072627858818],[-122.343453011278,47.6072591387541],[-122.343290850178,47.6072599199568],[-122.34312384981,47.6072615878353],[-122.343031845807,47.6072628084546],[-122.342983955872,47.6072612502595],[-122.342045540309,47.6072602766819],[-122.342029364284,47.6068508189521],[-122.34203757973,47.6063011533438],[-122.342048699054,47.6063010622326],[-122.342067382661,47.6063021854047],[-122.342071062492,47.6063032330648],[-122.342074392278,47.6063062052169],[-122.342115382566,47.6063495339336],[-122.342124577499,47.6063590091487],[-122.342127493651,47.6063617123196],[-122.342131562266,47.6063622072963],[-122.342137983432,47.6063599285325],[-122.34218880502,47.6063367695161],[-122.342244926067,47.6063146380556],[-122.342260923316,47.6063070223678],[-122.342265723804,47.6063047650901],[-122.342271731316,47.6063022173396],[-122.342276992099,47.6063018738075],[-122.342289961571,47.6063017018039],[-122.342300523871,47.6063023837144],[-122.342397468723,47.6063038405008],[-122.342500087963,47.6063052212372],[-122.342588076288,47.6063054250384],[-122.342664312198,47.6063057846743],[-122.342709705348,47.6063051825007],[-122.342737321658,47.6063067359919],[-122.342769673774,47.6063038387194],[-122.342772892287,47.6063029733282],[-122.342775649469,47.6063001949081],[-122.34279343446,47.6062843291997],[-122.34279817028,47.6062798791433],[-122.342798114633,47.6062779607326],[-122.342796430363,47.6062757894635],[-122.34278445449,47.6062542859676],[-122.342755295843,47.606199558691],[-122.342706579962,47.606127541242],[-122.342653978737,47.6060473497898],[-122.342616762674,47.6059943740502],[-122.342575445532,47.6059258229384],[-122.342566521149,47.6059116831803],[-122.342554370322,47.6058981344472],[-122.342550158656,47.6058927059282],[-122.34254685272,47.6058905561665],[-122.342535504003,47.6058907067022],[-122.342516431783,47.6058901369914],[-122.342398865354,47.6058905999165],[-122.342226528102,47.6058898692422],[-122.34208337989,47.6058890257133],[-122.341941447671,47.6058881651792],[-122.341704240802,47.6058874718299],[-122.341584965273,47.6058849395642],[-122.341528161245,47.60588349894],[-122.341391052352,47.6058812035647],[-122.34132742151,47.605882046939],[-122.341261295109,47.6058807297391],[-122.341163174797,47.6058806591957],[-122.34111134497,47.6058829914413],[-122.341092963957,47.6058782988693],[-122.341081981216,47.6058770734899],[-122.341081337281,47.6058688557992],[-122.34108100374,47.6058573439268],[-122.341080010765,47.6058510507115],[-122.341067788196,47.605849019068],[-122.341054803992,47.6058486429013],[-122.34102517752,47.6058476638705],[-122.340875736048,47.6058394986866],[-122.340695523643,47.6058328381326],[-122.340588733619,47.6058273975715],[-122.340565131659,47.605824420166],[-122.340551351975,47.6058246027075],[-122.34054326148,47.6058252581104],[-122.340537047516,47.6058206787366],[-122.340528742695,47.6058139341492],[-122.340455554491,47.6057367555792],[-122.340382143236,47.6056519033283],[-122.340369158899,47.6056375427181],[-122.340367013494,47.6056334576729],[-122.340371471825,47.6056333986199],[-122.340382359253,47.6056313352616],[-122.34042294339,47.6056327168389],[-122.340511240998,47.6056296280661],[-122.340641808968,47.6056300919982],[-122.340767607161,47.6056339090437],[-122.341005648068,47.6056354166725],[-122.341329348467,47.6056407239611],[-122.341490694229,47.6056399562947],[-122.34165087961,47.6056411236327],[-122.341751875841,47.6056425265422],[-122.341847604463,47.605643999203],[-122.341899115746,47.6056446871482],[-122.341957057107,47.6056433706621],[-122.342009338983,47.605642677419],[-122.34204786507,47.6056429892513],[-122.342058419299,47.6056433975265],[-122.342075480988,47.6056445422015],[-122.342086423972,47.6056443970911],[-122.342090818727,47.6056421452004],[-122.342106394223,47.6056339868965],[-122.342119610278,47.6056283279574],[-122.342128406678,47.6056240978446],[-122.342135535803,47.6056182451573],[-122.342148671327,47.6056098447392],[-122.342154115189,47.6056018207856],[-122.342157135002,47.6055941034428],[-122.342156920425,47.6055867027548],[-122.342155442158,47.6055776734394],[-122.342149435096,47.6055662368048],[-122.342138777946,47.6055482809947],[-122.342126817384,47.605527326162],[-122.342114039594,47.6055061077004],[-122.342080996296,47.6054571892248],[-122.342049733678,47.6054137315126],[-122.342003029934,47.6053411388744],[-122.341962080089,47.6052712124675],[-122.341953958347,47.6052567875571],[-122.341949357006,47.6052519124121],[-122.341927391749,47.6052494618175],[-122.341888794455,47.6052466835161],[-122.341778865454,47.6052448502397],[-122.341638088491,47.6052417811228],[-122.34149010297,47.605241823691],[-122.341311657169,47.605240075474],[-122.341113772426,47.6052391335169],[-122.34091503871,47.6052368315448],[-122.340707396347,47.6052349210163],[-122.340570464895,47.6052386549348],[-122.340432492884,47.6052344500119]]},"properties":{"TYPE":"PUG"}}]}