{"type":"FeatureCollection","features":[{"type":"Feature","geometry":{"type":"Point","coordinates":[-122.33673488180973,47.61157777581545]},"properties":{"NAME":"Westlake Station","STATION":"Westlake","STATUS":"COMPLETE"}},{"type":"Feature","geometry":{"type":"Point","coordinates":[-122.33603472631908,47.607815857492476]},"properties":{"NAME":"University Street Station","STATION":"University Street","STATUS":"COMPLETE"}},{"type":"Feature","geometry":{"type":"Point","coordinates":[-122.33123091427899,47.6025657415039]},"properties":{"NAME":"Pioneer Square Station","STATION":"Pioneer Square","STATUS":"COMPLETE"}},{"type":"Feature","geometry":{"type":"Point","coordinates":[-122.32800714704881,47.598360641264634]},"properties":{"NAME":"International District Station","STATION":"International District / Chinatown","STATUS":"COMPLETE"}},{"type":"Feature","geometry":{"type":"Point","coordinates":[-122.32718650662841,47.59111396894861]},"properties":{"NAME":"Stadium Station","STATION":"Stadium","STATUS":"COMPLETE"}},{"type":"Feature","geometry":{"type":"Point","coordinates":[-122.327404661021,47.581079898823454]},"properties":{"NAME":"SODO Station","STATION":"SODO","STATUS":"COMPLETE"}},{"type":"Feature","geometry":{"type":"Point","coordinates":[-122.31154835442685,47.57933330420128]},"properties":{"NAME":"Beacon Hill Station","STATION":"Beacon Hill","STATUS":"COMPLETE"}},{"type":"Feature","geometry":{"type":"Point","coordinates":[-122.29769398484889,47.57655574546439]},"properties":{"NAME":"Mount Baker Station","STATION":"Mount Baker","STATUS":"COMPLETE"}},{"type":"Feature","geometry":{"type":"Point","coordinates":[-122.29270652472431,47.55973909733616]},"properties":{"NAME":"Columbia City Station","STATION":"Columbia City","STATUS":"COMPLETE"}},{"type":"Feature","geometry":{"type":"Point","coordinates":[-122.28157777054179,47.53799246766981]},"properties":{"NAME":"Othello Station","STATION":"Othello","STATUS":"COMPLETE"}},{"type":"Feature","geometry":{"type":"Point","coordinates":[-122.27940541504039,47.52239922287344]},"properties":{"NAME":"Rainier Beach Station","STATION":"Rainier Beach","STATUS":"COMPLETE"}},{"type":"Feature","geometry":{"type":"Point","coordinates":[-122.28801076415994,47.4640362254498]},"properties":{"NAME":"Tukwila International Blvd Station","STATION":"Tukwila International Blvd","STATUS":"COMPLETE"}},{"type":"Feature","geometry":{"type":"Point","coordinates":[-122.32020954817011,47.61906576645464]},"properties":{"NAME":"Capitol Hill Station","STATION":"Capitol Hill","STATUS":"COMPLETE"}},{"type":"Feature","geometry":{"type":"Point","coordinates":[-122.29691316462272,47.445386778808746]},"properties":{"NAME":"Airport / SeaTac Station","STATION":"Airport / SeaTac","STATUS":"COMPLETE"}},{"type":"Feature","geometry":{"type":"Point","coordinates":[-122.29772886716853,47.42270828322983]},"properties":{"NAME":"Angle Lake Station","STATION":"Angle Lake","STATUS":"COMPLETE"}}]}